CCSDS_OMM_VERS = 2.0
CREATION_DATE  = 
ORIGINATOR     = 

OBJECT_NAME    = STARLINK-36515
OBJECT_ID      = 2026-005AC
CENTER_NAME    = EARTH
REF_FRAME      = TEME
TIME_SYSTEM    = UTC
MEAN_ELEMENT_THEORY = SGP/SGP4

EPOCH          = 2026-01-26T06:00:02.000160
MEAN_MOTION    = 15.75002528
ECCENTRICITY   = .00011969
INCLINATION    = 43.0000
RA_OF_ASC_NODE = 123.1450
ARG_OF_PERICENTER = 290.1800
MEAN_ANOMALY   = 39.7187

EPHEMERIS_TYPE = 0
CLASSIFICATION_TYPE = U
NORAD_CAT_ID   = 67430
ELEMENT_SET_NO = 999
REV_AT_EPOCH   = 328
BSTAR          = .4404019E-3
MEAN_MOTION_DOT = .67606E-3
MEAN_MOTION_DDOT = 0

CCSDS_OMM_VERS = 2.0
CREATION_DATE  = 
ORIGINATOR     = 

OBJECT_NAME    = STARLINK-36443
OBJECT_ID      = 2026-005AD
CENTER_NAME    = EARTH
REF_FRAME      = TEME
TIME_SYSTEM    = UTC
MEAN_ELEMENT_THEORY = SGP/SGP4

EPOCH          = 2026-01-26T06:00:02.000160
MEAN_MOTION    = 15.75006092
ECCENTRICITY   = .00017761
INCLINATION    = 43.0002
RA_OF_ASC_NODE = 123.1299
ARG_OF_PERICENTER = 273.6050
MEAN_ANOMALY   = 62.0533

EPHEMERIS_TYPE = 0
CLASSIFICATION_TYPE = U
NORAD_CAT_ID   = 67431
ELEMENT_SET_NO = 999
REV_AT_EPOCH   = 331
BSTAR          = .35305383E-3
MEAN_MOTION_DOT = .54025E-3
MEAN_MOTION_DDOT = 0

CCSDS_OMM_VERS = 2.0
CREATION_DATE  = 
ORIGINATOR     = 

OBJECT_NAME    = STARLINK-36460
OBJECT_ID      = 2026-005AE
CENTER_NAME    = EARTH
REF_FRAME      = TEME
TIME_SYSTEM    = UTC
MEAN_ELEMENT_THEORY = SGP/SGP4

EPOCH          = 2026-01-26T06:00:02.000160
MEAN_MOTION    = 15.74927632
ECCENTRICITY   = .0001322
INCLINATION    = 43.0001
RA_OF_ASC_NODE = 123.1250
ARG_OF_PERICENTER = 253.5693
MEAN_ANOMALY   = 84.0146

EPHEMERIS_TYPE = 0
CLASSIFICATION_TYPE = U
NORAD_CAT_ID   = 67432
ELEMENT_SET_NO = 999
REV_AT_EPOCH   = 336
BSTAR          = .12151702E-2
MEAN_MOTION_DOT = .18951E-2
MEAN_MOTION_DDOT = 0

CCSDS_OMM_VERS = 2.0
CREATION_DATE  = 
ORIGINATOR     = 

OBJECT_NAME    = YAOGAN-50 01
OBJECT_ID      = 2026-006A
CENTER_NAME    = EARTH
REF_FRAME      = TEME
TIME_SYSTEM    = UTC
MEAN_ELEMENT_THEORY = SGP/SGP4

EPOCH          = 2026-01-26T05:52:36.938208
MEAN_MOTION    = 13.83250756
ECCENTRICITY   = .00006896
INCLINATION    = 142.0306
RA_OF_ASC_NODE = 249.8363
ARG_OF_PERICENTER = 272.5757
MEAN_ANOMALY   = 87.4884

EPHEMERIS_TYPE = 0
CLASSIFICATION_TYPE = U
NORAD_CAT_ID   = 67433
ELEMENT_SET_NO = 999
REV_AT_EPOCH   = 177
BSTAR          = .18521999E-3
MEAN_MOTION_DOT = .393E-5
MEAN_MOTION_DDOT = 0

CCSDS_OMM_VERS = 2.0
CREATION_DATE  = 
ORIGINATOR     = 

OBJECT_NAME    = CZ-6A R/B
OBJECT_ID      = 2026-006B
CENTER_NAME    = EARTH
REF_FRAME      = TEME
TIME_SYSTEM    = UTC
MEAN_ELEMENT_THEORY = SGP/SGP4

EPOCH          = 2026-01-25T14:23:41.596800
MEAN_MOTION    = 14.62271920
ECCENTRICITY   = .0202424
INCLINATION    = 142.0433
RA_OF_ASC_NODE = 253.5760
ARG_OF_PERICENTER = 169.8106
MEAN_ANOMALY   = 190.6801

EPHEMERIS_TYPE = 0
CLASSIFICATION_TYPE = U
NORAD_CAT_ID   = 67434
ELEMENT_SET_NO = 999
REV_AT_EPOCH   = 176
BSTAR          = .20725E-3
MEAN_MOTION_DOT = .1754E-4
MEAN_MOTION_DDOT = 0

CCSDS_OMM_VERS = 2.0
CREATION_DATE  = 
ORIGINATOR     = 

OBJECT_NAME    = HULIANWANG DIGUI-137
OBJECT_ID      = 2026-007A
CENTER_NAME    = EARTH
REF_FRAME      = TEME
TIME_SYSTEM    = UTC
MEAN_ELEMENT_THEORY = SGP/SGP4

EPOCH          = 2026-01-26T06:12:29.082816
MEAN_MOTION    = 13.88154181
ECCENTRICITY   = .00005062
INCLINATION    = 50.0067
RA_OF_ASC_NODE = 244.1689
ARG_OF_PERICENTER = 219.6318
MEAN_ANOMALY   = 140.4543

EPHEMERIS_TYPE = 0
CLASSIFICATION_TYPE = U
NORAD_CAT_ID   = 67435
ELEMENT_SET_NO = 999
REV_AT_EPOCH   = 176
BSTAR          = .19469714E-3
MEAN_MOTION_DOT = .88E-6
MEAN_MOTION_DDOT = 0

CCSDS_OMM_VERS = 2.0
CREATION_DATE  = 
ORIGINATOR     = 

OBJECT_NAME    = HULIANWANG DIGUI-138
OBJECT_ID      = 2026-007B
CENTER_NAME    = EARTH
REF_FRAME      = TEME
TIME_SYSTEM    = UTC
MEAN_ELEMENT_THEORY = SGP/SGP4

EPOCH          = 2026-01-26T06:15:55.149408
MEAN_MOTION    = 13.87707023
ECCENTRICITY   = .00002522
INCLINATION    = 50.0050
RA_OF_ASC_NODE = 244.1776
ARG_OF_PERICENTER = 277.8245
MEAN_ANOMALY   = 82.2624

EPHEMERIS_TYPE = 0
CLASSIFICATION_TYPE = U
NORAD_CAT_ID   = 67436
ELEMENT_SET_NO = 999
REV_AT_EPOCH   = 176
BSTAR          = .18987221E-3
MEAN_MOTION_DOT = .81E-6
MEAN_MOTION_DDOT = 0

CCSDS_OMM_VERS = 2.0
CREATION_DATE  = 
ORIGINATOR     = 

OBJECT_NAME    = HULIANWANG DIGUI-139
OBJECT_ID      = 2026-007C
CENTER_NAME    = EARTH
REF_FRAME      = TEME
TIME_SYSTEM    = UTC
MEAN_ELEMENT_THEORY = SGP/SGP4

EPOCH          = 2026-01-26T06:13:58.335744
MEAN_MOTION    = 13.88031136
ECCENTRICITY   = .00059757
INCLINATION    = 50.0079
RA_OF_ASC_NODE = 244.1301
ARG_OF_PERICENTER = 194.4881
MEAN_ANOMALY   = 165.5846

EPHEMERIS_TYPE = 0
CLASSIFICATION_TYPE = U
NORAD_CAT_ID   = 67437
ELEMENT_SET_NO = 999
REV_AT_EPOCH   = 176
BSTAR          = .22734146E-3
MEAN_MOTION_DOT = .127E-5
MEAN_MOTION_DDOT = 0

CCSDS_OMM_VERS = 2.0
CREATION_DATE  = 
ORIGINATOR     = 

OBJECT_NAME    = HULIANWANG DIGUI-140
OBJECT_ID      = 2026-007D
CENTER_NAME    = EARTH
REF_FRAME      = TEME
TIME_SYSTEM    = UTC
MEAN_ELEMENT_THEORY = SGP/SGP4

EPOCH          = 2026-01-25T02:39:12.492864
MEAN_MOTION    = 13.88269827
ECCENTRICITY   = .0003277
INCLINATION    = 50.0038
RA_OF_ASC_NODE = 248.7599
ARG_OF_PERICENTER = 277.0443
MEAN_ANOMALY   = 83.0082

EPHEMERIS_TYPE = 0
CLASSIFICATION_TYPE = U
NORAD_CAT_ID   = 67438
ELEMENT_SET_NO = 999
REV_AT_EPOCH   = 160
BSTAR          = .23232943E-3
MEAN_MOTION_DOT = .134E-5
MEAN_MOTION_DDOT = 0

CCSDS_OMM_VERS = 2.0
CREATION_DATE  = 
ORIGINATOR     = 

OBJECT_NAME    = HULIANWANG DIGUI-141
OBJECT_ID      = 2026-007E
CENTER_NAME    = EARTH
REF_FRAME      = TEME
TIME_SYSTEM    = UTC
MEAN_ELEMENT_THEORY = SGP/SGP4

EPOCH          = 2026-01-25T02:32:21.986592
MEAN_MOTION    = 13.89617410
ECCENTRICITY   = .00015362
INCLINATION    = 50.0075
RA_OF_ASC_NODE = 248.7193
ARG_OF_PERICENTER = 269.3855
MEAN_ANOMALY   = 90.6868

EPHEMERIS_TYPE = 0
CLASSIFICATION_TYPE = U
NORAD_CAT_ID   = 67439
ELEMENT_SET_NO = 999
REV_AT_EPOCH   = 160
BSTAR          = .21650445E-3
MEAN_MOTION_DOT = .121E-5
MEAN_MOTION_DDOT = 0

CCSDS_OMM_VERS = 2.0
CREATION_DATE  = 
ORIGINATOR     = 

OBJECT_NAME    = HULIANWANG DIGUI-142
OBJECT_ID      = 2026-007F
CENTER_NAME    = EARTH
REF_FRAME      = TEME
TIME_SYSTEM    = UTC
MEAN_ELEMENT_THEORY = SGP/SGP4

EPOCH          = 2026-01-26T06:07:39.800064
MEAN_MOTION    = 13.88800663
ECCENTRICITY   = .00001195
INCLINATION    = 50.0108
RA_OF_ASC_NODE = 244.1616
ARG_OF_PERICENTER = 240.7652
MEAN_ANOMALY   = 119.3234

EPHEMERIS_TYPE = 0
CLASSIFICATION_TYPE = U
NORAD_CAT_ID   = 67440
ELEMENT_SET_NO = 999
REV_AT_EPOCH   = 176
BSTAR          = .24485057E-4
MEAN_MOTION_DOT = -.116E-5
MEAN_MOTION_DDOT = 0

CCSDS_OMM_VERS = 2.0
CREATION_DATE  = 
ORIGINATOR     = 

OBJECT_NAME    = HULIANWANG DIGUI-143
OBJECT_ID      = 2026-007G
CENTER_NAME    = EARTH
REF_FRAME      = TEME
TIME_SYSTEM    = UTC
MEAN_ELEMENT_THEORY = SGP/SGP4

EPOCH          = 2026-01-26T06:05:49.358400
MEAN_MOTION    = 13.89117659
ECCENTRICITY   = .00003
INCLINATION    = 50.0092
RA_OF_ASC_NODE = 244.1501
ARG_OF_PERICENTER = 287.7202
MEAN_ANOMALY   = 72.3664

EPHEMERIS_TYPE = 0
CLASSIFICATION_TYPE = U
NORAD_CAT_ID   = 67441
ELEMENT_SET_NO = 999
REV_AT_EPOCH   = 176
BSTAR          = .19532102E-3
MEAN_MOTION_DOT = .93E-6
MEAN_MOTION_DDOT = 0

