STARLINK-36515          
1 67430U 26005AC  26026.25002315  .00067606  00000+0  44040-3 0  9996
2 67430  43.0000 123.1450 0001196 290.1800  39.7187 15.75002528  3285
STARLINK-36443          
1 67431U 26005AD  26026.25002315  .00054025  00000+0  35305-3 0  9992
2 67431  43.0002 123.1299 0001776 273.6050  62.0533 15.75006092  3314
STARLINK-36460          
1 67432U 26005AE  26026.25002315  .00189510  00000+0  12152-2 0  9995
2 67432  43.0001 123.1250 0001322 253.5693  84.0146 15.74927632  3368
YAOGAN-50 01            
1 67433U 26006A   26026.24487197  .00000393  00000+0  18522-3 0  9990
2 67433 142.0306 249.8363 0000689 272.5757  87.4884 13.83250756  1778
CZ-6A R/B               
1 67434U 26006B   26025.59978700  .00001754  00000+0  20725-3 0  9993
2 67434 142.0433 253.5760 0202424 169.8106 190.6801 14.62271920  1769
HULIANWANG DIGUI-137    
1 67435U 26007A   26026.25866994  .00000088  00000+0  19470-3 0  9994
2 67435  50.0067 244.1689 0000506 219.6318 140.4543 13.88154181  1765
HULIANWANG DIGUI-138    
1 67436U 26007B   26026.26105497  .00000081  00000+0  18987-3 0  9995
2 67436  50.0050 244.1776 0000252 277.8245  82.2624 13.87707023  1769
HULIANWANG DIGUI-139    
1 67437U 26007C   26026.25970296  .00000127  00000+0  22734-3 0  9998
2 67437  50.0079 244.1301 0005975 194.4881 165.5846 13.88031136  1769
HULIANWANG DIGUI-140    
1 67438U 26007D   26025.11056126  .00000134  00000+0  23233-3 0  9993
2 67438  50.0038 248.7599 0003277 277.0443  83.0082 13.88269827  1608
HULIANWANG DIGUI-141    
1 67439U 26007E   26025.10581003  .00000121  00000+0  21650-3 0  9997
2 67439  50.0075 248.7193 0001536 269.3855  90.6868 13.89617410  1609
HULIANWANG DIGUI-142    
1 67440U 26007F   26026.25532176 -.00000116  00000+0  24485-4 0  9998
2 67440  50.0108 244.1616 0000119 240.7652 119.3234 13.88800663  1768
HULIANWANG DIGUI-143    
1 67441U 26007G   26026.25404350  .00000093  00000+0  19532-3 0  9990
2 67441  50.0092 244.1501 0000300 287.7202  72.3664 13.89117659  1760
